QIANFAN-9               
1 60387U 24140J   25262.25084388  .00000067  00000+0  85474-4 0  9994
2 60387  88.9789 308.0898 0018440  84.0722 276.2531 13.50970205 55920
QIANFAN-10              
1 60388U 24140K   25262.32901340  .00000063  00000+0  78951-4 0  9997
2 60388  88.9797 307.4211 0016529  64.0967 296.1885 13.50967518 56069
QIANFAN-11              
1 60389U 24140L   25262.29193882  .00000070  00000+0  89500-4 0  9998
2 60389  88.9724 308.0748 0016468  83.9158 276.3869 13.50968049 55719
QIANFAN-12              
1 60390U 24140M   25262.23839450  .00000086  00000+0  11375-3 0  9993
2 60390  88.9767 308.0868 0015356  91.3072 268.9838 13.50968076 55830
QIANFAN-13              
1 60391U 24140N   25262.35774112  .00000067  00000+0  84854-4 0  9992
2 60391  88.9780 308.1639 0015187  93.2806 267.0083 13.50968112 55878
QIANFAN-14              
1 60392U 24140P   25262.30829378  .00000081  00000+0  10705-3 0  9992
2 60392  88.9758 308.0847 0018875  93.1523 267.1788 13.50969024 55872
QIANFAN-15              
1 60393U 24140Q   25262.31658197  .00000075  00000+0  97768-4 0  9991
2 60393  88.9782 308.0204 0014555  81.6517 278.6284 13.50972487 55867
QIANFAN-16              
1 60394U 24140R   25262.30430998  .00000082  00000+0  10872-3 0  9996
2 60394  88.9785 308.1392 0016811  96.6485 263.6580 13.50968090 55775
